CUTE-1 (CO-55)          
1 27844U 03031E   21337.51965459  .00000115  00000+0  71400-4 0  9994
2 27844  98.6805 343.1735 0009081 313.7637  46.2789 14.22355398956016
CUBESAT XI-IV (CO-57)   
1 27848U 03031J   21337.49305964  .00000088  00000+0  59578-4 0  9995
2 27848  98.6856 343.6982 0009141 328.6638  31.3994 14.21926180955832
CUBESAT XI-V            
1 28895U 05043F   21337.31547643  .00000307  00000+0  67552-4 0  9991
2 28895  98.0816 107.1094 0017447  42.3578 317.8969 14.64017150858711
CUTE-1.7+APD II (CO-65) 
1 32785U 08021C   21337.83457222  .00000665  00000+0  76410-4 0  9993
2 32785  97.6327 310.3106 0013386 155.8233 204.3615 14.88914964737375
AAUSAT-II               
1 32788U 08021F   21337.73945355  .00001375  00000+0  12734-3 0  9991
2 32788  97.5182 325.4522 0013177  64.1269 296.1310 14.95992977739162
DELFI-C3 (DO-64)        
1 32789U 08021G   21337.39478074  .00003403  00000+0  21306-3 0  9992
2 32789  97.3604   6.2030 0009721 282.6317  77.3825 15.09990588742312
SEEDS II (CO-66)        
1 32791U 08021J   21337.75690701  .00001125  00000+0  11700-3 0  9994
2 32791  97.5900 315.9648 0014379 118.8449 241.4215 14.91681418738010
SWISSCUBE               
1 35932U 09051B   21337.54892892  .00000279  00000+0  73600-4 0  9997
2 35932  98.5862 182.7860 0006601 293.0432  67.0068 14.56626005647571
BEESAT-1                
1 35933U 09051C   21337.50850889  .00000244  00000+0  65639-4 0  9999
2 35933  98.5814 184.4902 0004930 309.7473  50.3289 14.56672493647648
ITUPSAT1                
1 35935U 09051E   21337.81988575  .00000222  00000+0  61838-4 0  9992
2 35935  98.5915 184.9132 0007239 308.5089  51.5457 14.55798560647415
TISAT 1                 
1 36799U 10035E   21337.80648133  .00000765  00000+0  81512-4 0  9990
2 36799  98.1961 175.4661 0012595  23.8223 336.3575 14.92010129618581
M-CUBED & EXP-1 PRIME   
1 37855U 11061F   21337.52721208  .00004265  00000+0  20566-3 0  9998
2 37855 101.7225 348.8926 0163221 287.4843  70.8589 15.08869217551666
AEROCUBE 4.5A           
1 38767U 12048K   21337.52141560  .00002276  00000+0  17633-3 0  9995
2 38767  64.6667   5.3260 0172098 316.2572  42.5008 14.93268080121517
AEROCUBE 4.5B           
1 38768U 12048L   21337.57143329  .00004013  00000+0  27531-3 0  9995
2 38768  64.6669 323.8473 0163014 311.2342  47.4818 14.97334513121806
STRAND-1                
1 39090U 13009E   21337.75062489  .00000182  00000+0  78484-4 0  9996
2 39090  98.4128 175.8593 0009903 130.0510 230.1546 14.35209802459322
BRITE-AUSTRIA           
1 39091U 13009F   21337.80312620  .00000052  00000+0  33169-4 0  9995
2 39091  98.4134 175.0599 0011235 136.5097 223.6977 14.35213522459363
SOMP                    
1 39134U 13015E   21337.45255245  .00005222  00000+0  22227-3 0  9996
2 39134  64.8636 342.4414 0025233 308.9177  50.9702 15.23841193476958
BEESAT-3                
1 39135U 13015F   21337.49277356  .00003484  00000+0  16753-3 0  9993
2 39135  64.8685  14.3834 0023793 321.4165  38.5261 15.20337783476291
BEESAT-2                
1 39136U 13015G   21337.49980351  .00003491  00000+0  17196-3 0  9990
2 39136  64.8772  21.4854 0013903 247.8561 112.1091 15.19636727476112
NEE-01 PEGASO           
1 39151U 13018B   21337.53538071  .00000471  00000+0  68353-4 0  9990
2 39151  97.9866  79.0820 0017334 166.1631 194.0059 14.80483505464699
ESTCUBE 1               
1 39161U 13021C   21337.20713568  .00000309  00000+0  56266-4 0  9995
2 39161  97.9283  54.4257 0008874 339.0362  21.0500 14.72593213460588
POPACS 1                
1 39268U 13055D   21337.56961109  .00005778  00000+0  14990-3 0  9997
2 39268  80.9993  89.2809 0592932  69.6563 296.7294 14.45374955424960
POPACS 2                
1 39269U 13055E   21337.17492681  .00008539  00000+0  24064-3 0  9990
2 39269  81.0104 140.9692 0661467 203.6339 153.3138 14.29351160422118
POPACS 3                
1 39270U 13055F   21337.27938373  .00002946  00000+0  91598-4 0  9999
2 39270  81.0142 170.3989 0698698 287.3387  65.2560 14.19362191400780
ZACUBE-1 (TSHEPISOSAT)  
1 39417U 13066B   21337.76345035  .00000762  00000+0  10059-3 0  9991
2 39417  97.6128 313.5061 0057687 327.4846  32.2819 14.81702728434146
WNISAT-1                
1 39423U 13066H   21337.42628010  .00000256  00000+0  59879-4 0  9990
2 39423  97.7766 228.0464 0175931  30.2568 330.8663 14.53286897425981
TRITON-1                
1 39427U 13066M   21337.38797996  .00000345  00000+0  62291-4 0  9990
2 39427  97.7947 277.0223 0113112 170.4866 189.8519 14.68407501430008
DELFI-N3XT              
1 39428U 13066N   21337.64902549  .00000659  00000+0  11084-3 0  9993
2 39428  97.7977 275.7750 0118909 182.8761 177.1776 14.68276603429798
GOMX-1                  
1 39430U 13066Q   21337.71204112  .00000618  00000+0  12028-3 0  9999
2 39430  97.8138 251.0534 0149306 302.1510  56.5283 14.59762258427733
CUBEBUG-2 (LO-74)       
1 39440U 13066AA  21337.48940057  .00000723  00000+0  10568-3 0  9993
2 39440  97.7001 298.7062 0080787  47.8456 312.9581 14.76408499431362
NEE-02 KRYSAOR          
1 39441U 13066AB  21337.67492148  .00000462  00000+0  71799-4 0  9992
2 39441  97.7105 296.1572 0082585  59.2257 301.7051 14.75302750431168
FUNCUBE-1 (AO-73)       
1 39444U 13066AE  21337.50718460  .00000924  00000+0  11802-3 0  9996
2 39444  97.6022 315.6511 0056476 317.6337  42.0522 14.82648295433073
UWE-3                   
1 39446U 13066AG  21337.44244814  .00000780  00000+0  10837-3 0  9995
2 39446  97.6596 305.4060 0069793   9.5868 350.6658 14.78955946431489
AEROCUBE 5A             
1 39465U 13072D   21337.88978267  .00021535  00000+0  14419-2 0  9997
2 39465 120.4969 309.0799 0250712  75.2681 287.6019 14.84801028120476
AEROCUBE 5B             
1 39466U 13072E   21337.34469735  .00022901  00000+0  12102-2 0  9999
2 39466 120.4688  15.7583 0210573  89.8464 272.6726 14.98426935121181
BRITE-CA1 (TORONTO)     
1 40020U 14033L   21337.78591283  .00000242  00000+0  49249-4 0  9995
2 40020  97.7549 142.0237 0087529 166.7803 193.5725 14.66809334398972
DUCHIFAT-1              
1 40021U 14033M   21337.79948199  .00001422  00000+0  14712-3 0  9996
2 40021  97.9902 279.9499 0012155 332.5102  27.5471 14.91674396405526
NANOSATC-BR1            
1 40024U 14033Q   21337.40005705  .00001022  00000+0  10997-3 0  9991
2 40024  97.9660 273.8685 0011666 340.4634  19.6135 14.90718992404768
QB50P1                  
1 40025U 14033R   21337.43397606  .00000958  00000+0  10603-3 0  9990
2 40025  97.9445 268.6518 0012127 349.4702  10.6259 14.89674262404571
QB50P2                  
1 40032U 14033Y   21337.59085991  .00000769  00000+0  87346-4 0  9995
2 40032  97.9255 264.8674 0011448 347.0015  13.0905 14.89166488404464
PERSEUS-M2              
1 40037U 14033AD  21337.61288611  .00000337  00000+0  43997-4 0  9992
2 40037  97.8922 256.0312 0014500   6.4330 353.7069 14.86769869404025
PERSEUS-M1              
1 40039U 14033AF  21337.48960946  .00000350  00000+0  45804-4 0  9991
2 40039  97.8844 254.0029 0014328   5.7063 354.4313 14.86387553403896
POLYITAN-1              
1 40042U 14033AJ  21337.37110540  .00001188  00000+0  13052-3 0  9999
2 40042  97.9544 269.5530 0014160 340.1117  19.9546 14.89528597404458
TIGRISAT                
1 40043U 14033AK  21337.48860475  .00000355  00000+0  58873-4 0  9997
2 40043  97.6587 172.3136 0060988  71.5524 289.2303 14.74646805400740
AEROCUBE 6A             
1 40045U 14033AM  21337.50315024  .00000700  00000+0  10609-3 0  9995
2 40045  97.6767 180.3426 0058578  60.6508 300.0535 14.75967431400871
AEROCUBE 6B             
1 40046U 14033AN  21337.50347912  .00000694  00000+0  10500-3 0  9999
2 40046  97.6667 178.9827 0057776  59.3489 301.3400 14.76054921400878
UKUBE-1                 
1 40074U 14037F   21337.54591449  .00000800  00000+0  10144-3 0  9997
2 40074  98.4057 202.7382 0003661 188.4459 171.6723 14.84750850400990
BRITE-PL2 (HEWELIUSZ)   
1 40119U 14049B   21337.52203393  .00000349  00000+0  47441-4 0  9995
2 40119  97.8882  70.2407 0017878 159.1995 200.9951 14.84761232394931
FIREBIRD 4              
1 40378U 15003C   21337.74182257  .00005542  00000+0  19360-3 0  9990
2 40378  99.1131 155.0561 0112538 325.1585  34.2314 15.24282067378563
GRIFEX                  
1 40379U 15003D   21337.73665380  .00003493  00000+0  13860-3 0  9995
2 40379  99.1135 142.8576 0124863   1.7589 358.4054 15.19376814377876
CP10 (EXOCUBE)          
1 40380U 15003E   21337.40919432  .00002713  00000+0  11491-3 0  9993
2 40380  99.1165 136.1735 0131294  23.8596 336.8643 15.16878107377416
TIANWANG 1A (TW-1A)     
1 40928U 15051D   21337.87323094  .00013250  00000+0  24809-3 0  9993
2 40928  97.0640 358.8647 0010091  42.1462  80.5394 15.48753249347889
EXACTVIEW 9             
1 40936U 15052G   21335.38684917  .00001052  00000+0  57350-4 0  9996
2 40936   6.0022 146.7151 0010935 234.2952 125.6158 14.76801643333887
AEROCUBE 5C             
1 40965U 15058B   21337.47023720  .00000760  00000+0  97333-4 0  9995
2 40965  64.7768 325.7874 0209767 260.0318  97.7055 14.74960506120054
AEROCUBE 7              
1 40966U 15058C   21337.46295332  .00000987  00000+0  12013-3 0  9997
2 40966  64.7768 323.4366 0208391 259.7031  98.0521 14.75361560120042
ATHENOXAT 1             
1 41168U 15077C   21337.54343970  .00005112  00000+0  21695-3 0  9995
2 41168  14.9870  96.9843 0010749  15.7159  70.6999 15.16790814330489
GALASSIA                
1 41170U 15077E   21337.95371791  .00004810  00000+0  20137-3 0  9999
2 41170  14.9889  84.3615 0011858  49.8865 310.2494 15.16885253330625
VELOX-II                
1 41171U 15077F   21337.15982516  .00003336  00000+0  14480-3 0  9991
2 41171  14.9901 154.4544 0008497 256.9519 102.9853 15.13244833329817
HORYU-4                 
1 41340U 16012D   21337.81290275  .00001190  00000+0  81633-4 0  9997
2 41340  31.0032 167.2898 0013574  54.5810 305.6091 15.02197352318277
